[
    {
        "Altitude(m)": 704725.3238329559,
        "Argument of Periapsis(deg)": 0.005695060593313534,
        "Eccentricity": 0.0,
        "Inclination(deg)": 45.0,
        "Latitude(deg)": -7.570198905992743,
        "Longitude(deg)": -92.96734054961607,
        "Mean Anomaly(deg)": -10.596991676259606,
        "RAAN(deg)": 14.994624029270897,
        "Satellite Name": "Constellation 1 87",
        "Satellite Number": 87,
        "Semi-Major Axis(m)": 7083131.272910544,
        "Time(s)": 95
    },
    {
        "Altitude(m)": 704716.2796605562,
        "Argument of Periapsis(deg)": 0.00575500859955894,
        "Eccentricity": 0.0,
        "Inclination(deg)": 45.0,
        "Latitude(deg)": -7.527381244480346,
        "Longitude(deg)": -92.9278584104632,
        "Mean Anomaly(deg)": -10.536290536009748,
        "RAAN(deg)": 14.994567440105328,
        "Satellite Name": "Constellation 1 87",
        "Satellite Number": 87,
        "Semi-Major Axis(m)": 7083131.272910544,
        "Time(s)": 96
    },
    {
        "Altitude(m)": 704707.2536203577,
        "Argument of Periapsis(deg)": 0.005814956605804345,
        "Eccentricity": 0.0,
        "Inclination(deg)": 45.0,
        "Latitude(deg)": -7.484559080933178,
        "Longitude(deg)": -92.88838456304687,
        "Mean Anomaly(deg)": -10.475589395759837,
        "RAAN(deg)": 14.994510850939758,
        "Satellite Name": "Constellation 1 87",
        "Satellite Number": 87,
        "Semi-Major Axis(m)": 7083131.272910544,
        "Time(s)": 97
    },
    {
        "Altitude(m)": 704698.2457345579,
        "Argument of Periapsis(deg)": 0.00587490461204975,
        "Eccentricity": 0.0,
        "Inclination(deg)": 45.0,
        "Latitude(deg)": -7.44173244162288,
        "Longitude(deg)": -92.84891912562409,
        "Mean Anomaly(deg)": -10.414888255509927,
        "RAAN(deg)": 14.99445426177419,
        "Satellite Name": "Constellation 1 87",
        "Satellite Number": 87,
        "Semi-Major Axis(m)": 7083131.272910544,
        "Time(s)": 98
    },
    {
        "Altitude(m)": 704689.2560252767,
        "Argument of Periapsis(deg)": 0.005934852618295156,
        "Eccentricity": 0.0,
        "Inclination(deg)": 45.0,
        "Latitude(deg)": -7.398901352805343,
        "Longitude(deg)": -92.80946204837224,
        "Mean Anomaly(deg)": -10.354187115260016,
        "RAAN(deg)": 14.994397672608617,
        "Satellite Name": "Constellation 1 87",
        "Satellite Number": 87,
        "Semi-Major Axis(m)": 7083131.272910544,
        "Time(s)": 99
    },
    {
        "Altitude(m)": 704680.284514555,
        "Argument of Periapsis(deg)": 0.005994800624540561,
        "Eccentricity": 0.0,
        "Inclination(deg)": 45.0,
        "Latitude(deg)": -7.356065840720805,
        "Longitude(deg)": -92.77001328148631,
        "Mean Anomaly(deg)": -10.293485975010107,
        "RAAN(deg)": 14.99434108344305,
        "Satellite Name": "Constellation 1 87",
        "Satellite Number": 87,
        "Semi-Major Axis(m)": 7083131.272910544,
        "Time(s)": 100
    },
    {
        "Altitude(m)": 704671.3312243402,
        "Argument of Periapsis(deg)": 0.006054748630785968,
        "Eccentricity": 0.0,
        "Inclination(deg)": 45.0,
        "Latitude(deg)": -7.313225931593964,
        "Longitude(deg)": -92.73057277517866,
        "Mean Anomaly(deg)": -10.232784834760247,
        "RAAN(deg)": 14.994284494277482,
        "Satellite Name": "Constellation 1 87",
        "Satellite Number": 87,
        "Semi-Major Axis(m)": 7083131.272910544,
        "Time(s)": 101
    },
    {
        "Altitude(m)": 704662.3961764926,
        "Argument of Periapsis(deg)": 0.006114696637031373,
        "Eccentricity": 0.0,
        "Inclination(deg)": 45.0,
        "Latitude(deg)": -7.270381651633976,
        "Longitude(deg)": -92.69114047967899,
        "Mean Anomaly(deg)": -10.172083694510336,
        "RAAN(deg)": 14.99422790511191,
        "Satellite Name": "Constellation 1 87",
        "Satellite Number": 87,
        "Semi-Major Axis(m)": 7083131.272910544,
        "Time(s)": 102
    },
    {
        "Altitude(m)": 704653.4793927938,
        "Argument of Periapsis(deg)": 0.006174644643276778,
        "Eccentricity": 0.0,
        "Inclination(deg)": 45.0,
        "Latitude(deg)": -7.227533027034709,
        "Longitude(deg)": -92.65171634523428,
        "Mean Anomaly(deg)": -10.111382554260478,
        "RAAN(deg)": 14.99417131594634,
        "Satellite Name": "Constellation 1 87",
        "Satellite Number": 87,
        "Semi-Major Axis(m)": 7083131.272910544,
        "Time(s)": 103
    },
    {
        "Altitude(m)": 704644.5808949334,
        "Argument of Periapsis(deg)": 0.006234592649522184,
        "Eccentricity": 0.0,
        "Inclination(deg)": 45.0,
        "Latitude(deg)": -7.184680083974579,
        "Longitude(deg)": -92.61230049020566,
        "Mean Anomaly(deg)": -10.050681414010517,
        "RAAN(deg)": 14.994114726780772,
        "Satellite Name": "Constellation 1 87",
        "Satellite Number": 87,
        "Semi-Major Axis(m)": 7083131.272910544,
        "Time(s)": 104
    },
    {
        "Altitude(m)": 704635.7007045152,
        "Argument of Periapsis(deg)": 0.00629454065576759,
        "Eccentricity": 0.0,
        "Inclination(deg)": 45.0,
        "Latitude(deg)": -7.141822848617169,
        "Longitude(deg)": -92.57289252868024,
        "Mean Anomaly(deg)": -9.989980273760606,
        "RAAN(deg)": 14.994058137615202,
        "Satellite Name": "Constellation 1 87",
        "Satellite Number": 87,
        "Semi-Major Axis(m)": 7083131.272910544,
        "Time(s)": 105
    },
    {
        "Altitude(m)": 704626.8388430575,
        "Argument of Periapsis(deg)": 0.006354488662012995,
        "Eccentricity": 0.0,
        "Inclination(deg)": 45.0,
        "Latitude(deg)": -7.0989613471106905,
        "Longitude(deg)": -92.53349257905323,
        "Mean Anomaly(deg)": -9.929279133510747,
        "RAAN(deg)": 14.994001548449633,
        "Satellite Name": "Constellation 1 87",
        "Satellite Number": 87,
        "Semi-Major Axis(m)": 7083131.272910544,
        "Time(s)": 106
    },
    {
        "Altitude(m)": 704617.9953319944,
        "Argument of Periapsis(deg)": 0.006414436668258401,
        "Eccentricity": 0.0,
        "Inclination(deg)": 45.0,
        "Latitude(deg)": -7.056095605588421,
        "Longitude(deg)": -92.49410059163957,
        "Mean Anomaly(deg)": -9.868577993260889,
        "RAAN(deg)": 14.993944959284063,
        "Satellite Name": "Constellation 1 87",
        "Satellite Number": 87,
        "Semi-Major Axis(m)": 7083131.272910544,
        "Time(s)": 107
    },
    {
        "Altitude(m)": 704609.1701926696,
        "Argument of Periapsis(deg)": 0.0064743846745038075,
        "Eccentricity": 0.0,
        "Inclination(deg)": 45.0,
        "Latitude(deg)": -7.013225650168694,
        "Longitude(deg)": -92.45471651677096,
        "Mean Anomaly(deg)": -9.807876853010926,
        "RAAN(deg)": 14.993888370118494,
        "Satellite Name": "Constellation 1 87",
        "Satellite Number": 87,
        "Semi-Major Axis(m)": 7083131.272910544,
        "Time(s)": 108
    },
    {
        "Altitude(m)": 704600.3634463471,
        "Argument of Periapsis(deg)": 0.0065343326807492125,
        "Eccentricity": 0.0,
        "Inclination(deg)": 45.0,
        "Latitude(deg)": -6.970351506955208,
        "Longitude(deg)": -92.4153403047959,
        "Mean Anomaly(deg)": -9.747175712761017,
        "RAAN(deg)": 14.993831780952926,
        "Satellite Name": "Constellation 1 87",
        "Satellite Number": 87,
        "Semi-Major Axis(m)": 7083131.272910544,
        "Time(s)": 109
    },
    {
        "Altitude(m)": 704591.5751141978,
        "Argument of Periapsis(deg)": 0.0065942806869946176,
        "Eccentricity": 0.0,
        "Inclination(deg)": 45.0,
        "Latitude(deg)": -6.927473202036869,
        "Longitude(deg)": -92.37597190607947,
        "Mean Anomaly(deg)": -9.686474572511159,
        "RAAN(deg)": 14.993775191787355,
        "Satellite Name": "Constellation 1 87",
        "Satellite Number": 87,
        "Semi-Major Axis(m)": 7083131.272910544,
        "Time(s)": 110
    },
    {
        "Altitude(m)": 704582.8052173052,
        "Argument of Periapsis(deg)": 0.006654228693240024,
        "Eccentricity": 0.0,
        "Inclination(deg)": 45.0,
        "Latitude(deg)": -6.884590761487852,
        "Longitude(deg)": -92.33661143910007,
        "Mean Anomaly(deg)": -9.625773432261248,
        "RAAN(deg)": 14.993718602621787,
        "Satellite Name": "Constellation 1 87",
        "Satellite Number": 87,
        "Semi-Major Axis(m)": 7083131.272910544,
        "Time(s)": 111
    },
    {
        "Altitude(m)": 704574.0537766711,
        "Argument of Periapsis(deg)": 0.006714176699485429,
        "Eccentricity": 0.0,
        "Inclination(deg)": 45.0,
        "Latitude(deg)": -6.841704211368067,
        "Longitude(deg)": -92.29725851806157,
        "Mean Anomaly(deg)": -9.565072292011338,
        "RAAN(deg)": 14.993662013456214,
        "Satellite Name": "Constellation 1 87",
        "Satellite Number": 87,
        "Semi-Major Axis(m)": 7083131.272910544,
        "Time(s)": 112
    },
    {
        "Altitude(m)": 704565.3208132109,
        "Argument of Periapsis(deg)": 0.006774124705730835,
        "Eccentricity": 0.0,
        "Inclination(deg)": 45.0,
        "Latitude(deg)": -6.79881357772283,
        "Longitude(deg)": -92.25791326147512,
        "Mean Anomaly(deg)": -9.504371151761427,
        "RAAN(deg)": 14.993605424290646,
        "Satellite Name": "Constellation 1 87",
        "Satellite Number": 87,
        "Semi-Major Axis(m)": 7083131.272910544,
        "Time(s)": 113
    }
]